CCSDS_OMM_VERS = 2.0
CREATION_DATE  = 
ORIGINATOR     = 

OBJECT_NAME    = STARLINK-1598
OBJECT_ID      = 2020-057AV
CENTER_NAME    = EARTH
REF_FRAME      = TEME
TIME_SYSTEM    = UTC
MEAN_ELEMENT_THEORY = SGP/SGP4

EPOCH          = 2020-09-08T22:00:00.999936
MEAN_MOTION    = 15.66260447
ECCENTRICITY   = .0001041
INCLINATION    = 52.9996
RA_OF_ASC_NODE = 335.2473
ARG_OF_PERICENTER = 24.2620
MEAN_ANOMALY   = 215.2291

EPHEMERIS_TYPE = 0
CLASSIFICATION_TYPE = U
NORAD_CAT_ID   = 46160
ELEMENT_SET_NO = 999
REV_AT_EPOCH   = 177
BSTAR          = -.23212E-3
MEAN_MOTION_DOT = -2.4913E-4
MEAN_MOTION_DDOT = 0

CCSDS_OMM_VERS = 2.0
CREATION_DATE  = 
ORIGINATOR     = 

OBJECT_NAME    = STARLINK-1600
OBJECT_ID      = 2020-057AW
CENTER_NAME    = EARTH
REF_FRAME      = TEME
TIME_SYSTEM    = UTC
MEAN_ELEMENT_THEORY = SGP/SGP4

EPOCH          = 2020-09-08T22:00:00.999936
MEAN_MOTION    = 15.66242500
ECCENTRICITY   = .0001537
INCLINATION    = 52.9975
RA_OF_ASC_NODE = 335.2660
ARG_OF_PERICENTER = 67.2841
MEAN_ANOMALY   = 159.4115

EPHEMERIS_TYPE = 0
CLASSIFICATION_TYPE = U
NORAD_CAT_ID   = 46161
ELEMENT_SET_NO = 999
REV_AT_EPOCH   = 177
BSTAR          = -.23079E-3
MEAN_MOTION_DOT = -2.4758E-4
MEAN_MOTION_DDOT = 0

CCSDS_OMM_VERS = 2.0
CREATION_DATE  = 
ORIGINATOR     = 

OBJECT_NAME    = STARLINK-1603
OBJECT_ID      = 2020-057AX
CENTER_NAME    = EARTH
REF_FRAME      = TEME
TIME_SYSTEM    = UTC
MEAN_ELEMENT_THEORY = SGP/SGP4

EPOCH          = 2020-09-08T22:00:00.999936
MEAN_MOTION    = 15.66261845
ECCENTRICITY   = .0001078
INCLINATION    = 52.9995
RA_OF_ASC_NODE = 335.2355
ARG_OF_PERICENTER = 26.7993
MEAN_ANOMALY   = 215.6473

EPHEMERIS_TYPE = 0
CLASSIFICATION_TYPE = U
NORAD_CAT_ID   = 46162
ELEMENT_SET_NO = 999
REV_AT_EPOCH   = 177
BSTAR          = -.23106E-3
MEAN_MOTION_DOT = -2.4804E-4
MEAN_MOTION_DDOT = 0

CCSDS_OMM_VERS = 2.0
CREATION_DATE  = 
ORIGINATOR     = 

OBJECT_NAME    = STARLINK-1610
OBJECT_ID      = 2020-057AY
CENTER_NAME    = EARTH
REF_FRAME      = TEME
TIME_SYSTEM    = UTC
MEAN_ELEMENT_THEORY = SGP/SGP4

EPOCH          = 2020-09-08T22:00:00.999936
MEAN_MOTION    = 15.66296268
ECCENTRICITY   = .0001409
INCLINATION    = 52.9996
RA_OF_ASC_NODE = 335.2303
ARG_OF_PERICENTER = 63.0579
MEAN_ANOMALY   = 184.6441

EPHEMERIS_TYPE = 0
CLASSIFICATION_TYPE = U
NORAD_CAT_ID   = 46163
ELEMENT_SET_NO = 999
REV_AT_EPOCH   = 177
BSTAR          = -.22554E-3
MEAN_MOTION_DOT = -2.426E-4
MEAN_MOTION_DDOT = 0

CCSDS_OMM_VERS = 2.0
CREATION_DATE  = 
ORIGINATOR     = 

OBJECT_NAME    = STARLINK-1612
OBJECT_ID      = 2020-057AZ
CENTER_NAME    = EARTH
REF_FRAME      = TEME
TIME_SYSTEM    = UTC
MEAN_ELEMENT_THEORY = SGP/SGP4

EPOCH          = 2020-09-08T22:00:00.999936
MEAN_MOTION    = 15.66266779
ECCENTRICITY   = .0001438
INCLINATION    = 52.9992
RA_OF_ASC_NODE = 335.2210
ARG_OF_PERICENTER = 330.2972
MEAN_ANOMALY   = 279.8557

EPHEMERIS_TYPE = 0
CLASSIFICATION_TYPE = U
NORAD_CAT_ID   = 46164
ELEMENT_SET_NO = 999
REV_AT_EPOCH   = 177
BSTAR          = -.22879E-3
MEAN_MOTION_DOT = -2.4572E-4
MEAN_MOTION_DDOT = 0

CCSDS_OMM_VERS = 2.0
CREATION_DATE  = 
ORIGINATOR     = 

OBJECT_NAME    = STARLINK-1615
OBJECT_ID      = 2020-057BB
CENTER_NAME    = EARTH
REF_FRAME      = TEME
TIME_SYSTEM    = UTC
MEAN_ELEMENT_THEORY = SGP/SGP4

EPOCH          = 2020-09-09T04:00:00.999936
MEAN_MOTION    = 15.60504883
ECCENTRICITY   = .0001420
INCLINATION    = 52.9974
RA_OF_ASC_NODE = 334.4013
ARG_OF_PERICENTER = 43.1437
MEAN_ANOMALY   = 354.1368

EPHEMERIS_TYPE = 0
CLASSIFICATION_TYPE = U
NORAD_CAT_ID   = 46166
ELEMENT_SET_NO = 999
REV_AT_EPOCH   = 407
BSTAR          = -.14336E-1
MEAN_MOTION_DOT = -1.092538E-2
MEAN_MOTION_DDOT = 0

CCSDS_OMM_VERS = 2.0
CREATION_DATE  = 
ORIGINATOR     = 

OBJECT_NAME    = STARLINK-1626
OBJECT_ID      = 2020-057BC
CENTER_NAME    = EARTH
REF_FRAME      = TEME
TIME_SYSTEM    = UTC
MEAN_ELEMENT_THEORY = SGP/SGP4

EPOCH          = 2020-09-08T22:00:00.999936
MEAN_MOTION    = 15.62752397
ECCENTRICITY   = .0001780
INCLINATION    = 52.9991
RA_OF_ASC_NODE = 335.5968
ARG_OF_PERICENTER = 315.1306
MEAN_ANOMALY   = 112.7636

EPHEMERIS_TYPE = 0
CLASSIFICATION_TYPE = U
NORAD_CAT_ID   = 46167
ELEMENT_SET_NO = 999
REV_AT_EPOCH   = 177
BSTAR          = -.11686E-3
MEAN_MOTION_DOT = -1.122E-4
MEAN_MOTION_DDOT = 0

CCSDS_OMM_VERS = 2.0
CREATION_DATE  = 
ORIGINATOR     = 

OBJECT_NAME    = STARLINK-1632
OBJECT_ID      = 2020-057BF
CENTER_NAME    = EARTH
REF_FRAME      = TEME
TIME_SYSTEM    = UTC
MEAN_ELEMENT_THEORY = SGP/SGP4

EPOCH          = 2020-09-08T22:00:00.999936
MEAN_MOTION    = 15.62770327
ECCENTRICITY   = .0001099
INCLINATION    = 52.9995
RA_OF_ASC_NODE = 335.5885
ARG_OF_PERICENTER = 42.0776
MEAN_ANOMALY   = 31.6730

EPHEMERIS_TYPE = 0
CLASSIFICATION_TYPE = U
NORAD_CAT_ID   = 46170
ELEMENT_SET_NO = 999
REV_AT_EPOCH   = 177
BSTAR          = -.31657E-3
MEAN_MOTION_DOT = -2.9435E-4
MEAN_MOTION_DDOT = 0

CCSDS_OMM_VERS = 2.0
CREATION_DATE  = 
ORIGINATOR     = 

OBJECT_NAME    = STARLINK-1633
OBJECT_ID      = 2020-057BG
CENTER_NAME    = EARTH
REF_FRAME      = TEME
TIME_SYSTEM    = UTC
MEAN_ELEMENT_THEORY = SGP/SGP4

EPOCH          = 2020-09-08T17:59:40.846848
MEAN_MOTION    = 15.66196917
ECCENTRICITY   = .0001638
INCLINATION    = 52.9983
RA_OF_ASC_NODE = 336.0964
ARG_OF_PERICENTER = 63.0069
MEAN_ANOMALY   = 297.1112

EPHEMERIS_TYPE = 0
CLASSIFICATION_TYPE = U
NORAD_CAT_ID   = 46171
ELEMENT_SET_NO = 999
REV_AT_EPOCH   = 400
BSTAR          = .29723E-6
MEAN_MOTION_DOT = -5.3E-6
MEAN_MOTION_DDOT = 0

